[{"OBJECT_NAME":"STARLINK-36202","OBJECT_ID":"2025-298V","EPOCH":"2026-03-09T22:18:08.038080","MEAN_MOTION":14.99160974,"ECCENTRICITY":0.00024266,"INCLINATION":70.0038,"RA_OF_ASC_NODE":13.8431,"ARG_OF_PERICENTER":236.7757,"MEAN_ANOMALY":123.317,"EPHEMERIS_TYPE":0,"CLASSIFICATION_TYPE":"U","NORAD_CAT_ID":67094,"ELEMENT_SET_NO":999,"REV_AT_EPOCH":1325,"BSTAR":0.00049737229,"MEAN_MOTION_DOT":5.975e-5,"MEAN_MOTION_DDOT":0},{"OBJECT_NAME":"THOR AGENA B DEB","OBJECT_ID":"1965-098J","EPOCH":"2026-03-09T15:55:33.898656","MEAN_MOTION":12.39065528,"ECCENTRICITY":0.1280637,"INCLINATION":79.7465,"RA_OF_ASC_NODE":159.9057,"ARG_OF_PERICENTER":252.7397,"MEAN_ANOMALY":243.9853,"EPHEMERIS_TYPE":0,"CLASSIFICATION_TYPE":"U","NORAD_CAT_ID":2153,"ELEMENT_SET_NO":999,"REV_AT_EPOCH":67470,"BSTAR":0.00058104,"MEAN_MOTION_DOT":1.819e-5,"MEAN_MOTION_DDOT":0}]
